[{"OBJECT_NAME":"SWARM B","OBJECT_ID":"2013-067A","EPOCH":"2026-03-09T22:20:48.706656","MEAN_MOTION":15.27862638,"ECCENTRICITY":0.00036996,"INCLINATION":87.749,"RA_OF_ASC_NODE":12.4162,"ARG_OF_PERICENTER":86.3179,"MEAN_ANOMALY":273.8493,"EPHEMERIS_TYPE":0,"CLASSIFICATION_TYPE":"U","NORAD_CAT_ID":39451,"ELEMENT_SET_NO":999,"REV_AT_EPOCH":66808,"BSTAR":0.00020534236,"MEAN_MOTION_DOT":5.616e-5,"MEAN_MOTION_DDOT":0},{"OBJECT_NAME":"STARLINK-35767","OBJECT_ID":"2025-294AE","EPOCH":"2026-03-09T06:45:48.990528","MEAN_MOTION":15.27600826,"ECCENTRICITY":0.00042303,"INCLINATION":43.0039,"RA_OF_ASC_NODE":40.6469,"ARG_OF_PERICENTER":243.671,"MEAN_ANOMALY":116.3707,"EPHEMERIS_TYPE":0,"CLASSIFICATION_TYPE":"U","NORAD_CAT_ID":67058,"ELEMENT_SET_NO":999,"REV_AT_EPOCH":1473,"BSTAR":0.0013143484,"MEAN_MOTION_DOT":0.00036113,"MEAN_MOTION_DDOT":0}]
